0 IRIDIUM 138
1 43071U 17083B   24020.37267329  .00000418  00000-0  14222-3 0  9998
2 43071  86.3981 329.0386 0002252  77.4427 282.7021 14.34217469318178
0 IRIDIUM 116
1 43072U 17083C   24020.34095165  .00000537  00000-0  18471-3 0  9995
2 43072  86.3994 329.3122 0002172  89.5054 270.6390 14.34222991318200
0 IRIDIUM 130
1 43073U 17083D   24020.37902449  .00000613  00000-0  21198-3 0  9996
2 43073  86.4046 329.4762 0003634  58.7606 301.3946 14.34217116318152
0 IRIDIUM 151
1 43074U 17083E   24020.35364750  .00000611  00000-0  21122-3 0  9997
2 43074  86.3992 329.3450 0002457  87.0509 273.0968 14.34215488318175
0 IRIDIUM 134
1 43075U 17083F   24020.39169464  .00000574  00000-0  19804-3 0  9999
2 43075  86.3994 329.3252 0001981  82.8237 277.3184 14.34215272318145
0 IRIDIUM 137
1 43076U 17083G   24020.40438591  .00000461  00000-0  15746-3 0  9998
2 43076  86.3996 329.3952 0002199  93.8784 266.2663 14.34216158318217
0 IRIDIUM 141
1 43077U 17083H   24020.60732877  .00000488  00000-0  16737-3 0  9995
2 43077  86.3992 329.1907 0002220  83.4144 276.7304 14.34210339318248
0 IRIDIUM 153
1 43078U 17083J   24020.28045202  .00000573  00000-0  19771-3 0  9995
2 43078  86.3977 297.7795 0002605  73.8580 286.2902 14.34215711319308
0 IRIDIUM 131
1 43079U 17083K   24020.38535863  .00000565  00000-0  19467-3 0  9997
2 43079  86.3997 329.4107 0002174  86.1228 274.0217 14.34216638318142
0 IRIDIUM 144
1 43249U 18030A   24020.28679636 -.00000074  00000-0 -33545-4 0  9996
2 43249  86.3975 297.7287 0001877  84.1447 275.9962 14.34216785304160
0 IRIDIUM 149
1 43250U 18030B   24020.57221177  .00000414  00000-0  14087-3 0  9998
2 43250  86.3973 297.5862 0001891  87.4410 272.7002 14.34215672304220
0 IRIDIUM 157
1 43251U 18030C   24020.31216663  .00000456  00000-0  15576-3 0  9995
2 43251  86.3975 297.7286 0002368  85.8531 274.2935 14.34219689304168
0 IRIDIUM 140
1 43252U 18030D   24020.81957436  .00000214  00000-0  69456-4 0  9990
2 43252  86.3977 297.5310 0001703  77.3558 282.7828 14.34218886304291
0 IRIDIUM 145
1 43253U 18030E   24020.80689003  .00000441  00000-0  15055-3 0  9999
2 43253  86.3973 297.5106 0001776  85.6486 274.4913 14.34217367304222
0 IRIDIUM 146
1 43254U 18030F   24020.29948195  .00000407  00000-0  13833-3 0  9997
2 43254  86.3974 297.7376 0001765  86.8429 273.2968 14.34216828304164
0 IRIDIUM 148
1 43255U 18030G   24020.82590393  .00000602  00000-0  20806-3 0  9995
2 43255  86.3976 297.5478 0002116  93.9192 266.2246 14.34214645304273
0 IRIDIUM 142
1 43256U 18030H   24020.30581848  .00000502  00000-0  17204-3 0  9991
2 43256  86.3972 297.6865 0001834  86.9429 273.1976 14.34214124304169
0 IRIDIUM 150
1 43257U 18030J   24020.83226086  .00000579  00000-0  19962-3 0  9997
2 43257  86.3975 297.5538 0001699  79.1115 281.0271 14.34218677304268
0 IRIDIUM 143
1 43258U 18030K   24020.32485234  .00000538  00000-0  18497-3 0  9991
2 43258  86.3981 297.8237 0001692  86.8126 273.3263 14.34217322304121
0 IRIDIUM 161
1 43478U 18047C   24020.60853978  .00000689  00000-0  19862-3 0  9992
2 43478  86.4479  95.6860 0002188  93.0718 267.0733 14.43310557298412
0 IRIDIUM 152
1 43479U 18047D   24020.57664604  .00000498  00000-0  17091-3 0  9995
2 43479  86.3952  95.5586 0002019  98.7258 261.4166 14.34218375296552
0 IRIDIUM 147
1 43480U 18047E   24020.58298961  .00000662  00000-0  22936-3 0  9994
2 43480  86.3953  95.5457 0002297  89.9870 270.1589 14.34217525296554
0 IRIDIUM 110
1 43481U 18047F   24020.58933169  .00000327  00000-0  10981-3 0  9996
2 43481  86.3960  95.6127 0002294  83.2214 276.9243 14.34218314296541
0 IRIDIUM 162
1 43482U 18047G   24020.60230202  .00000679  00000-0  19572-3 0  9993
2 43482  86.4478  95.5909 0002176  93.2830 266.8620 14.43308805298407
0 IRIDIUM 160
1 43569U 18061A   24020.60493637  .00000261  00000-0  86128-4 0  9997
2 43569  86.3937  63.9529 0002581  98.3855 261.7633 14.34217659287448
0 IRIDIUM 166
1 43570U 18061B   24020.56053644  .00000221  00000-0  71684-4 0  9991
2 43570  86.3938  63.9340 0001851  85.1261 275.0146 14.34217583287461
0 IRIDIUM 158
1 43571U 18061C   24020.66835665  .00000493  00000-0  16903-3 0  9997
2 43571  86.3937  63.8979 0001973  98.4697 261.6723 14.34216725287440
0 IRIDIUM 165
1 43572U 18061D   24020.48441886  .00000392  00000-0  13278-3 0  9996
2 43572  86.3938  64.0044 0001991 100.6044 259.5376 14.34221448287448
0 IRIDIUM 155
1 43573U 18061E   24020.65567643  .00000372  00000-0  12573-3 0  9991
2 43573  86.3935  63.8455 0002223  87.8710 272.2740 14.34216499287430
0 IRIDIUM 154
1 43574U 18061F   24020.77618446  .00000460  00000-0  15703-3 0  9999
2 43574  86.3938  63.8855 0002410  96.9438 263.2032 14.34218871287502
0 IRIDIUM 163
1 43575U 18061G   24020.61761865  .00000400  00000-0  13576-3 0  9997
2 43575  86.3937  63.8947 0002280  94.2607 265.8849 14.34216466287454
